$$SOE
2461295.500000000, A.D. 2026-Sep-12 00:00:00.0000, 3.344428867740247E+08, 4.989866762686046E+08, -4.474736417164674E+07,
2461302.500000000, A.D. 2026-Sep-19 00:00:00.0000, 3.273224394053340E+08, 5.043025019243692E+08, -4.447457118353441E+07,
2461309.500000000, A.D. 2026-Sep-26 00:00:00.0000, 3.201294447814305E+08, 5.095065502356795E+08, -4.419192057187185E+07,
2461316.500000000, A.D. 2026-Oct-03 00:00:00.0000, 3.128656687138020E+08, 5.145979416365095E+08, -4.389949880877113E+07,
2461323.500000000, A.D. 2026-Oct-10 00:00:00.0000, 3.055328836309857E+08, 5.195758241459042E+08, -4.359739401521790E+07,
2461330.500000000, A.D. 2026-Oct-17 00:00:00.0000, 2.981328681145455E+08, 5.244393733277287E+08, -4.328569592203563E+07,
2461337.500000000, A.D. 2026-Oct-24 00:00:00.0000, 2.906674064321691E+08, 5.291877921504151E+08, -4.296449583890873E+07,
2461344.500000000, A.D. 2026-Oct-31 00:00:00.0000, 2.831382881668341E+08, 5.338203106802807E+08, -4.263388664587155E+07,
2461351.500000000, A.D. 2026-Nov-07 00:00:00.0000, 2.755473082812852E+08, 5.383361856826475E+08, -4.229396283216396E+07,
2461358.500000000, A.D. 2026-Nov-14 00:00:00.0000, 2.678962678189484E+08, 5.427347010180693E+08, -4.194482052817309E+07,
2461365.500000000, A.D. 2026-Nov-21 00:00:00.0000, 2.601869734294381E+08, 5.470151695146704E+08, -4.158655730825645E+07,
2461372.500000000, A.D. 2026-Nov-28 00:00:00.0000, 2.524212347193930E+08, 5.511769333077855E+08, -4.121927191822183E+07,
2461379.500000000, A.D. 2026-Dec-05 00:00:00.0000, 2.446008630473461E+08, 5.552193619914854E+08, -4.084306431274951E+07,
2461386.500000000, A.D. 2026-Dec-12 00:00:00.0000, 2.367276719277173E+08, 5.591418516939068E+08, -4.045803576348361E+07,
2461393.500000000, A.D. 2026-Dec-19 00:00:00.0000, 2.288034771565795E+08, 5.629438250831225E+08, -4.006428886395091E+07,
2461400.500000000, A.D. 2026-Dec-26 00:00:00.0000, 2.208300965166524E+08, 5.666247314359999E+08, -3.966192748899353E+07,
2461407.500000000, A.D. 2027-Jan-02 00:00:00.0000, 2.128093493372147E+08, 5.701840465796089E+08, -3.925105674950913E+07,
2461414.500000000, A.D. 2027-Jan-09 00:00:00.0000, 2.047430560254577E+08, 5.736212727255819E+08, -3.883178295150879E+07,
2461421.500000000, A.D. 2027-Jan-16 00:00:00.0000, 1.966330376037026E+08, 5.769359382062627E+08, -3.840421356196821E+07,
2461428.500000000, A.D. 2027-Jan-23 00:00:00.0000, 1.884811152970914E+08, 5.801275970729302E+08, -3.796845718891087E+07,
2461435.500000000, A.D. 2027-Jan-30 00:00:00.0000, 1.802891103578130E+08, 5.831958285082610E+08, -3.752462359687281E+07,
2461442.500000000, A.D. 2027-Feb-06 00:00:00.0000, 1.720588445488970E+08, 5.861402363931776E+08, -3.707282376901600E+07,
2461449.500000000, A.D. 2027-Feb-13 00:00:00.0000, 1.637921408258904E+08, 5.889604502478507E+08, -3.661316987417784E+07,
2461456.500000000, A.D. 2027-Feb-20 00:00:00.0000, 1.554908218512663E+08, 5.916561267552030E+08, -3.614577498681465E+07,
2461463.500000000, A.D. 2027-Feb-27 00:00:00.0000, 1.471567077357385E+08, 5.942269486528126E+08, -3.567075295053634E+07,
2461470.500000000, A.D. 2027-Mar-06 00:00:00.0000, 1.387916160236813E+08, 5.966726229167156E+08, -3.518821850518033E+07,
2461477.500000000, A.D. 2027-Mar-13 00:00:00.0000, 1.303973623224667E+08, 5.989928802869532E+08, -3.469828736345968E+07,
2461484.500000000, A.D. 2027-Mar-20 00:00:00.0000, 1.219757604461118E+08, 6.011874752999595E+08, -3.420107620195398E+07,
2461491.500000000, A.D. 2027-Mar-27 00:00:00.0000, 1.135286222749438E+08, 6.032561862787957E+08, -3.369670262993139E+07,
2461498.500000000, A.D. 2027-Apr-03 00:00:00.0000, 1.050577575339782E+08, 6.051988152336098E+08, -3.318528515860644E+07,
2461505.500000000, A.D. 2027-Apr-10 00:00:00.0000, 9.656497355110176E+07, 6.070151876955187E+08, -3.266694317463470E+07,
2461512.500000000, A.D. 2027-Apr-17 00:00:00.0000, 8.805207501699528E+07, 6.087051524697310E+08, -3.214179692108014E+07,
2461519.500000000, A.D. 2027-Apr-24 00:00:00.0000, 7.952086382584567E+07, 6.102685812458620E+08, -3.160996749821821E+07,
2461526.500000000, A.D. 2027-May-01 00:00:00.0000, 7.097313929628101E+07, 6.117053680934469E+08, -3.107157690938243E+07,
2461533.500000000, A.D. 2027-May-08 00:00:00.0000, 6.241069907978675E+07, 6.130154295914463E+08, -3.052674811891195E+07,
2461540.500000000, A.D. 2027-May-15 00:00:00.0000, 5.383533925992085E+07, 6.141987065454804E+08, -2.997560490702969E+07,
2461547.500000000, A.D. 2027-May-22 00:00:00.0000, 4.524885207851146E+07, 6.152551647006032E+08, -2.941827158991557E+07,
2461554.500000000, A.D. 2027-May-29 00:00:00.0000, 3.665302464398505E+07, 6.161847929811996E+08, -2.885487303257522E+07,
2461561.500000000, A.D. 2027-Jun-05 00:00:00.0000, 2.804963950640967E+07, 6.169876023907802E+08, -2.828553477972668E+07,
2461568.500000000, A.D. 2027-Jun-12 00:00:00.0000, 1.944047509203349E+07, 6.176636260038469E+08, -2.771038308526084E+07,
2461575.500000000, A.D. 2027-Jun-19 00:00:00.0000, 1.082730566631997E+07, 6.182129191147187E+08, -2.712954488616440E+07,
2461582.500000000, A.D. 2027-Jun-26 00:00:00.0000, 2.211901104829329E+06, 6.186355592820169E+08, -2.654314776769188E+07,
2461589.500000000, A.D. 2027-Jul-03 00:00:00.0000, -6.403973395901456E+06, 6.189316462771306E+08, -2.595131993100861E+07,
2461596.500000000, A.D. 2027-Jul-10 00:00:00.0000, -1.501855763056949E+07, 6.191013019452487E+08, -2.535419016571879E+07,
2461603.500000000, A.D. 2027-Jul-17 00:00:00.0000, -2.363009668406145E+07, 6.191446699397562E+08, -2.475188783349645E+07,
2461610.500000000, A.D. 2027-Jul-24 00:00:00.0000, -3.223684106094520E+07, 6.190619152667696E+08, -2.414454288199395E+07,
2461617.500000000, A.D. 2027-Jul-31 00:00:00.0000, -4.083704623455210E+07, 6.188532238751190E+08, -2.353228590723601E+07,
2461624.500000000, A.D. 2027-Aug-07 00:00:00.0000, -4.942897181689586E+07, 6.185188034438622E+08, -2.291524815180272E+07,
2461631.500000000, A.D. 2027-Aug-14 00:00:00.0000, -5.801088265059185E+07, 6.180588851144890E+08, -2.229356124840030E+07,
2461638.500000000, A.D. 2027-Aug-21 00:00:00.0000, -6.658105120461010E+07, 6.174737228033100E+08, -2.166735704035258E+07,
2461645.500000000, A.D. 2027-Aug-28 00:00:00.0000, -7.513775784344955E+07, 6.167635912975463E+08, -2.103676769536212E+07,
2461652.500000000, A.D. 2027-Sep-04 00:00:00.0000, -8.367929015090361E+07, 6.159287856384702E+08, -2.040192579995984E+07,
2461659.500000000, A.D. 2027-Sep-11 00:00:00.0000, -9.220394270331988E+07, 6.149696211304845E+08, -1.976296436095616E+07,
2461666.500000000, A.D. 2027-Sep-18 00:00:00.0000, -1.007100171590604E+08, 6.138864333257878E+08, -1.912001677945483E+07,
2461673.500000000, A.D. 2027-Sep-25 00:00:00.0000, -1.091958224353850E+08, 6.126795779070220E+08, -1.847321682499221E+07,
2461680.500000000, A.D. 2027-Oct-02 00:00:00.0000, -1.176596748978174E+08, 6.113494304956766E+08, -1.782269861467823E+07,
2461687.500000000, A.D. 2027-Oct-09 00:00:00.0000, -1.260998985396157E+08, 6.098963863820547E+08, -1.716859660000059E+07,
2461694.500000000, A.D. 2027-Oct-16 00:00:00.0000, -1.345148250882263E+08, 6.083208601222587E+08, -1.651104557177949E+07,
2461701.500000000, A.D. 2027-Oct-23 00:00:00.0000, -1.429027937789023E+08, 6.066232849968355E+08, -1.585018070774171E+07,
2461708.500000000, A.D. 2027-Oct-30 00:00:00.0000, -1.512621504209125E+08, 6.048041129418277E+08, -1.518613764734116E+07,
2461715.500000000, A.D. 2027-Nov-06 00:00:00.0000, -1.595912469198528E+08, 6.028638160810640E+08, -1.451905239506704E+07,
2461722.500000000, A.D. 2027-Nov-13 00:00:00.0000, -1.678884432410964E+08, 6.008028877837617E+08, -1.384906103990415E+07,
2461729.500000000, A.D. 2027-Nov-20 00:00:00.0000, -1.761521089124409E+08, 5.986218410609035E+08, -1.317629973563188E+07,
2461736.500000000, A.D. 2027-Nov-27 00:00:00.0000, -1.843806224490782E+08, 5.963212072650193E+08, -1.250090484799871E+07,
2461743.500000000, A.D. 2027-Dec-04 00:00:00.0000, -1.925723707246109E+08, 5.939015360080768E+08, -1.182301300852838E+07,
2461750.500000000, A.D. 2027-Dec-11 00:00:00.0000, -2.007257488384914E+08, 5.913633953336889E+08, -1.114276110319826E+07,
2461757.500000000, A.D. 2027-Dec-18 00:00:00.0000, -2.088391602048787E+08, 5.887073718044667E+08, -1.046028624881214E+07,
2461764.500000000, A.D. 2027-Dec-25 00:00:00.0000, -2.169110167109726E+08, 5.859340705023655E+08, -9.775725771075100E+06,
2461771.500000000, A.D. 2028-Jan-01 00:00:00.0000, -2.249397389034533E+08, 5.830441149566299E+08, -9.089217186854392E+06,
$$EOE